satname,norad_id,inclination_deg,eccentricity,mean_motion_rev_per_day,perigee_km,apogee_km,l1,l2
STARLINK-1227,45230,53.0564,0.0001423,15.0641839,546.1697267308446,548.1406648897719,1 45230U 20012BE  25270.54868203  .00017565  00000+0  11946-2 0  9997,2 45230  53.0564  18.9863 0001423  80.1240 279.9910 15.06418390310827
STARLINK-1238,45233,53.0364,0.0005363,16.05857141,254.67358461841377,261.79175472610495,1 45233U 20012BH  25270.65781275  .00665796  23007-3  89847-3 0  9992,2 45233  53.0364 341.0417 0005363  10.9086 349.2062 16.05857141311336
STARLINK-1246,45235,53.0549,0.0001016,15.06229222,547.0313487681697,548.4386859620981,1 45235U 20012BK  25270.56349374  .00045252  00000+0  30514-2 0  9993,2 45235  53.0549  58.9213 0001016 192.7778 167.3186 15.06229222310270
STARLINK-1247,45236,53.0384,0.0004049,16.02038977,266.0815261051148,271.4641937096676,1 45236U 20012BL  25270.35918372  .00542853  14425-3  92316-3 0  9999,2 45236  53.0384 322.7053 0004049  17.5042 342.6127 16.02038977311578
STARLINK-1270,45237,53.0553,0.000125,15.06412589,546.3073109882835,548.0386384819667,1 45237U 20012BM  25270.56711311  .00009448  00000+0  65207-3 0  9994,2 45237  53.0553  18.9055 0001250  57.0109 303.1000 15.06412589310813
STARLINK-1279,45360,53.0528,0.0001248,15.06384089,546.3960337049539,548.1246128768471,1 45360U 20019A   25269.99488861  .00004766  00000+0  33877-3 0  9990,2 45360  53.0528 151.4727 0001248 104.6858 255.4269 15.06384089305462
STARLINK-1301,45361,53.0531,0.0001156,15.06445763,546.2707504049922,547.8718585649895,1 45361U 20019B   25270.18192556  .00013068  00000+0  89344-3 0  9992,2 45361  53.0531 160.6340 0001156  85.2647 274.8474 15.06445763305367
STARLINK-1306,45362,53.0488,0.001004,15.57922451,386.87181269999746,400.46960257693536,1 45362U 20019C   25270.58339120  .00195286  00000+0  25066-2 0  9990,2 45362  53.0488 159.9705 0010040 111.0128 257.1855 15.57922451  5789
STARLINK-1262,45366,53.0534,0.0001443,15.0639034,546.2418325360441,548.2404966743497,1 45366U 20019G   25270.08060151  .00010463  00000+0  72043-3 0  9995,2 45366  53.0534 181.0879 0001443  85.8840 274.2314 15.06390340305074
STARLINK-1273,45367,53.0546,0.0001837,15.06388833,545.9735905790549,548.517976213674,1 45367U 20019H   25270.03635683  .00002157  00000+0  16368-3 0  9998,2 45367  53.0546 181.2860 0001837 113.0941 247.0242 15.06388833305064
STARLINK-1276,45368,53.0533,0.0001,15.06405614,546.5018187550886,547.8868850254657,1 45368U 20019J   25270.13954402  .00020804  00000+0  14112-2 0  9996,2 45368  53.0533 180.8259 0001000  98.9698 261.1404 15.06405614305086
STARLINK-1277,45369,53.0523,0.0001329,15.06386704,546.3319243239266,548.1726928021435,1 45369U 20019K   25270.19860196  .00031333  00000+0  21138-2 0  9994,2 45369  53.0523 181.1891 0001329  96.6312 263.4829 15.06386704305088
STARLINK-1281,45370,53.0535,0.0001588,15.06476615,545.8770458854151,548.0764620136688,1 45370U 20019L   25270.12848658  .00023035  00000+0  15570-2 0  9991,2 45370  53.0535 180.8768 0001588 106.7329 253.3835 15.06476615305086
STARLINK-1300,45374,53.0533,0.0001194,15.06383646,546.4347884438148,548.0885736488481,1 45374U 20019Q   25270.15062377  .00022373  00000+0  15168-2 0  9991,2 45374  53.0533 180.7735 0001194  96.8915 263.2210 15.06383646305082
STARLINK-1302,45375,53.0547,0.0001496,15.06384341,546.2235116096872,548.2955902577269,1 45375U 20019R   25270.16536208  .00002850  00000+0  21024-3 0  9999,2 45375  53.0547 180.7078 0001496 113.5858 246.5289 15.06384341305089
STARLINK-1304,45376,53.0527,0.0001405,15.06395793,546.2514385333852,548.197465101347,1 45376U 20019S   25269.98474978  .00004262  00000+0  30484-3 0  9992,2 45376  53.0527 181.5213 0001405  98.9185 261.1963 15.06395793305059
STARLINK-1305,45377,53.0528,0.0001279,15.06380397,546.3858791965413,548.1573987263882,1 45377U 20019T   25270.14324676  .00001536  00000+0  12202-3 0  9991,2 45377  53.0528 180.8060 0001279  98.3587 261.7548 15.06380397305084
STARLINK-1319,45379,53.0563,0.0001561,15.06379165,546.1943580705192,548.356471826467,1 45379U 20019V   25270.13587987  .00000030  00000+0  20939-4 0  9993,2 45379  53.0563 180.8447 0001561  84.0466 276.0701 15.06379165305087
STARLINK-1258,45381,53.0387,0.000537,16.09988953,243.3159657616361,250.4312271422259,1 45381U 20019X   25270.56951065  .00830589  39439-3  86237-3 0  9999,2 45381  53.0387  99.0261 0005370 249.5791 110.4666 16.09988953306256
STARLINK-1266,45383,53.0539,0.0001341,15.06385128,546.3284434972966,548.1858342053365,1 45383U 20019Z   25270.13771812 -.00004299  00000+0 -27002-3 0  9990,2 45383  53.0539 160.8342 0001341 100.1510 259.9630 15.06385128305350
STARLINK-1267,45384,53.053,0.0001191,15.06391899,546.4115744774608,548.0611984181123,1 45384U 20019AA  25270.32210456  .00006161  00000+0  43221-3 0  9993,2 45384  53.0530 160.6637 0001191  94.5549 265.5576 15.06391899305374
STARLINK-1272,45386,53.0547,0.0001352,15.06379012,546.3395680604044,548.2121997042059,1 45386U 20019AC  25270.13035784  .00002735  00000+0  20255-3 0  9998,2 45386  53.0547 160.8654 0001352  85.6658 274.4486 15.06379012305356
STARLINK-1274,45387,53.0343,0.0008345,15.24991262,485.07953475013346,496.5438100843976,1 45387U 20019AD  25270.10095696  .00025753  00000+0  10280-2 0  9995,2 45387  53.0343 151.3335 0008345  94.7482 265.4468 15.24991262305488
STARLINK-1280,45388,53.0532,0.0001278,15.06387901,546.3635755941186,548.1337041636716,1 45388U 20019AE  25270.32016963  .00011623  00000+0  79816-3 0  9992,2 45388  53.0532 180.0151 0001278 100.3740 259.7393 15.06387901305092
STARLINK-1283,45389,53.0531,0.0001427,15.06398136,546.2290227812555,548.2055188901522,1 45389U 20019AF  25270.10086411  .00002480  00000+0  18536-3 0  9997,2 45389  53.0531 160.9966 0001427 100.3267 259.7883 15.06398136305358
STARLINK-1284,45390,53.0537,0.0001233,15.06391441,546.3838914531316,548.0916888763877,1 45390U 20019AG  25270.14140611  .00005458  00000+0  38508-3 0  9995,2 45390  53.0537 160.8182 0001233 110.7730 249.3391 15.06391441305351
STARLINK-1292,45394,53.0518,0.0005108,15.75188701,340.6605486706758,347.52798013038773,1 45394U 20019AL  25270.58339120  .00232165  00000+0  14799-2 0  9994,2 45394  53.0518 127.9614 0005108 173.9899 187.5693 15.75188701  5815
STARLINK-1297,45395,53.0538,0.0001346,15.06398685,546.2834357684396,548.1477406851909,1 45395U 20019AM  25270.31095949  .00005700  00000+0  40123-3 0  9998,2 45395  53.0538 160.0587 0001346  62.7582 297.3544 15.06398685304566
STARLINK-1307,45397,53.0526,0.0001539,15.06396277,546.1571555214286,548.2887813197076,1 45397U 20019AP  25269.70644910 -.00013440  00000+0 -88514-3 0  9997,2 45397  53.0526 162.7681 0001539  86.6169 273.4996 15.06396277305112
STARLINK-1312,45398,53.0475,0.0009377,15.73625282,342.2383381656409,354.85355936775795,1 45398U 20019AQ  25270.58339120  .00237530  00000+0  16161-2 0  9994,2 45398  53.0475 127.4716 0009377 115.2434  63.9534 15.73625282  6006
STARLINK-1255,45399,53.0522,0.0001122,15.06389892,546.4655100915597,548.019565259815,1 45399U 20019AR  25270.07229664  .00004109  00000+0  29464-3 0  9995,2 45399  53.0522 151.1273 0001122  89.3324 270.7793 15.06389892305299
STARLINK-1259,45403,53.0464,0.0006256,15.86371397,308.2803571781333,316.6516396497482,1 45403U 20019AV  25270.58339120  .00336131  00000+0  12643-2 0  9999,2 45403  53.0464 108.9025 0006256 109.9212  24.5789 15.86371397  6043
STARLINK-1260,45404,53.0534,0.0001702,15.06389537,546.0649259294441,548.4223254944363,1 45404U 20019AW  25270.03912849 -.00001211  00000+0 -62403-4 0  9996,2 45404  53.0534 151.2811 0001702 115.3448 244.7718 15.06389537305192
STARLINK-1263,45405,53.0532,0.0001188,15.06401967,546.3827986806482,548.0282600656274,1 45405U 20019AX  25270.09072300  .00005881  00000+0  41333-3 0  9995,2 45405  53.0532 151.0446 0001188  76.1608 283.9513 15.06401967305205
STARLINK-1265,45406,53.0533,0.0001273,15.06394412,546.347085354776,548.1102834580252,1 45406U 20019AY  25269.89905781  .00002692  00000+0  19959-3 0  9996,2 45406  53.0533 151.9047 0001273 101.7369 258.3763 15.06394412305172
STARLINK-1278,45408,53.0555,0.0001805,15.06382401,546.0154617130056,548.5155320143731,1 45408U 20019BA  25269.99212529  .00000483  00000+0  51332-4 0  9998,2 45408  53.0555 181.4940 0001805 123.3617 236.7545 15.06382401304773
STARLINK-1296,45412,53.0531,0.0001481,15.06398802,546.1895849729581,548.2408743033775,1 45412U 20019BE  25269.37196440  .00006849  00000+0  47827-3 0  9993,2 45412  53.0531 154.2695 0001481  58.7914 301.3220 15.06398802305095
STARLINK-1298,45413,53.0495,0.001038,15.43465035,428.8190382746898,442.9649624794729,1 45413U 20019BF  25269.64975848  .00073889  00000+0  16158-2 0  9991,2 45413  53.0495 139.4685 0010380 116.1433 244.0641 15.43465035305423
STARLINK-1309,45414,53.0528,0.000138,15.06391041,546.2833142288055,548.1947180092538,1 45414U 20019BG  25270.31557034  .00000611  00000+0  59908-4 0  9996,2 45414  53.0528 150.0359 0001380  82.8024 277.3122 15.06391041305228
STARLINK-1316,45415,53.0555,0.0001554,15.06385943,546.1784350927192,548.330846814727,1 45415U 20019BH  25270.07598366 -.00001425  00000+0 -76812-4 0  9992,2 45415  53.0555 151.1056 0001554 101.9143 258.2021 15.06385943305223
STARLINK-1318,45416,53.0524,7.4e-05,15.56131073,398.36523313829184,399.36822969054083,1 45416U 20019BJ  25269.99024517  .00052357  00000+0  73775-3 0  9996,2 45416  53.0524 131.8734 0000740 175.4360 184.6657 15.56131073305473
STARLINK-1286,45417,53.0525,0.0001264,15.06385343,546.3811101606589,548.1318496323775,1 45417U 20019BK  25270.24645630  .00008406  00000+0  58274-3 0  9995,2 45417  53.0525 180.3461 0001264  81.7855 278.3277 15.06385343305083
STARLINK-1308,45419,53.0527,0.0001605,15.06354217,546.24033882804,548.4634207584531,1 45419U 20019BM  25270.17642710  .00006409  00000+0  44933-3 0  9993,2 45419  53.0527 180.6605 0001605 149.5099 210.5984 15.06354217304822
